SL-16 R/B               
1 24298U 96051B   25300.17086775 -.00000107  00000+0 -31426-4 0  9996
2 24298  70.7579  97.8497 0016991 321.4025  38.5879 14.12392484502790
ORBVIEW 2 (SEASTAR)     
1 24883U 97037A   25300.14182641  .00000536  00000+0  20316-3 0  9996
2 24883  98.8437  96.0517 0003225  93.6408 266.5146 14.35363821489317
SL-16 R/B               
1 25400U 98043G   25300.13866745  .00000146  00000+0  79981-4 0  9993
2 25400  98.8040 247.7153 0010661  46.1262 314.0796 14.26007828419952
SL-16 R/B               
1 25407U 98045B   25300.14618486  .00000166  00000+0  10798-3 0  9992
2 25407  71.0085 102.4082 0009252 237.9196 122.1029 14.16162060408199
ISS (ZARYA)             
1 25544U 98067A   25300.16780669  .00014442  00000+0  26500-3 0  9993
2 25544  51.6344  13.0478 0004676 344.0897  15.9944 15.49510295535631
CZ-4B R/B               
1 25732U 99025C   25300.03751956  .00000115  00000+0  76211-4 0  9997
2 25732  98.6839 342.3449 0037274  11.0045  11.1686 14.18226521369224
OKEAN-O                 
1 25860U 99039A   25300.14281669  .00001050  00000+0  14561-3 0  9993
2 25860  97.9668 356.2337 0001841  79.8423 280.2996 14.80044155414630
SL-16 R/B               
1 25861U 99039B   25300.11544100  .00000875  00000+0  11841-3 0  9995
2 25861  98.0193 354.2483 0014225 335.7812  24.2730 14.81486800417084
DELTA 2 R/B             
1 25876U 99041E   25299.90315850  .00001005  00000+0  20049-3 0  9992
2 25876  51.7630 115.3761 0504513 313.7189  42.2982 14.11243645344139
HELIOS 1B               
1 25977U 99064A   25300.17556370  .00002722  00000+0  31045-3 0  9990
2 25977  98.1756 193.4687 0002318 106.1465 254.0005 14.86996846665412
TERRA                   
1 25994U 99068A   25300.16430594  .00000741  00000+0  16060-3 0  9990
2 25994  97.9816 353.5404 0001203 217.3031 226.9016 14.60871616375582
SL-16 R/B               
1 26070U 00006B   25299.91506458  .00000190  00000+0  12072-3 0  9990
2 26070  71.0044  19.1122 0015745  17.7317 342.4352 14.15794416329624
